1 37673U 11024A   12306.42544990 -.00000049  00000-0  00000+0 0  9996
2 37673 098.0123 311.1312 0001020 063.1769 296.9100 14.72352249 75017
1 37673U 11024A   12308.05655360 -.00000049  00000-0  00000+0 0  9991
2 37673 098.0123 312.7387 0001020 057.9670 302.0774 14.72316700 75252
1 37673U 11024A   12308.87212687 -.00000049  00000-0  00000+0 0  9992
2 37673 098.0077 313.5427 0004298 047.9027 312.2352 14.72306381 75371
1 37673U 11024A   12309.07601532 -.00000049  00000-0  00000+0 0  9996
2 37673 098.0116 313.7443 0002614 071.3828 288.7065 14.72293005 75405
1 37673U 11024A   12309.61972440 -.00000049  00000-0  00000+0 0  9995
2 37673 098.0113 314.2790 0001331 081.8424 278.2812 14.72288770 75481
1 37673U 11024A   12311.04693654 -.00000049  00000-0  00000+0 0  9992
2 37673 098.0110 315.6855 0001253 074.7272 285.4103 14.72289644 75697
1 37673U 11024A   12312.06637107 -.00000049  00000-0  00000+0 0  9996
2 37673 098.0112 316.6904 0001242 074.2605 285.8767 14.72290271 75843
1 37673U 11024A   12313.08580496 -.00000049  00000-0  00000+0 0  9997
2 37673 098.0111 317.6951 0001316 076.1910 283.9460 14.72291027 75992
1 37673U 11024A   12314.44504982 -.00000049  00000-0  00000+0 0  9994
2 37673 098.0114 319.0347 0001292 075.4079 284.7274 14.72291669 76198
1 37673U 11024A   12315.46448263 -.00000049  00000-0  00000+0 0  9996
2 37673 098.0114 320.0395 0001279 080.0049 280.1334 14.72292631 76341
1 37673U 11024A   12316.48391477 -.00000049  00000-0  00000+0 0  9993
2 37673 098.0116 321.0447 0001276 084.4114 275.7280 14.72293510 76493
1 37673U 11024A   12317.57130846 -.00000049  00000-0  00000+0 0  9995
2 37673 098.0113 322.1164 0001269 089.6365 270.5029 14.72294408 76654
1 37673U 11024A   12318.59073915 -.00000049  00000-0  00000+0 0  9991
2 37673 098.0110 323.1213 0001229 085.2894 274.8492 14.72295342 76808
1 37673U 11024A   12319.61016819 -.00000049  00000-0  00000+0 0  9995
2 37673 098.0104 324.1257 0001273 092.4338 267.7027 14.72296478 76954
